GLOBALSTAR M045         
1 25676U 99019A   25178.51780997 -.00000051  00000+0  37177-3 0  9997
2 25676  51.9973 275.8265 0000696 167.2955 205.8688 12.27063078194662
GLOBALSTAR M044         
1 25678U 99019C   25178.49961708 -.00000026  00000+0  81077-3 0  9997
2 25678  51.9991 359.6196 0006870  64.2473 312.1470 11.90254323172558
GLOBALSTAR M025         
1 25770U 99031A   25178.30134299 -.00000086  00000+0 -57584-3 0  9994
2 25770  51.9793 135.8401 0001283 171.4181 342.1978 11.22558815482844
GLOBALSTAR M049         
1 25771U 99031B   25178.23592408 -.00000016  00000+0  17093-2 0  9999
2 25771  51.9831 171.2613 0002829  15.8246 344.2639 11.12116215118540
GLOBALSTAR M047         
1 25772U 99031C   25178.39298815 -.00000090  00000+0 -57500-3 0  9993
2 25772  51.9796 166.8994 0016820 280.8609  79.0303 11.31928912472265
GLOBALSTAR M052         
1 25773U 99031D   25178.52500594 -.00000050  00000+0  54617-3 0  9990
2 25773  51.9870 279.1366 0003095 185.8181 187.5885 11.15059985479667
